[{"OBJECT_NAME":"STARLINK-30492","OBJECT_ID":"2023-147J","EPOCH":"2026-03-09T22:00:01.999584","MEAN_MOTION":15.24234925,"ECCENTRICITY":0.00017232,"INCLINATION":43.0012,"RA_OF_ASC_NODE":323.9961,"ARG_OF_PERICENTER":274.4276,"MEAN_ANOMALY":21.8813,"EPHEMERIS_TYPE":0,"CLASSIFICATION_TYPE":"U","NORAD_CAT_ID":57921,"ELEMENT_SET_NO":999,"REV_AT_EPOCH":572,"BSTAR":0.041747131,"MEAN_MOTION_DOT":0.01125465,"MEAN_MOTION_DDOT":0},{"OBJECT_NAME":"TOMORROW-S3","OBJECT_ID":"2024-247R","EPOCH":"2026-03-09T11:56:51.820800","MEAN_MOTION":15.27672122,"ECCENTRICITY":3.967e-5,"INCLINATION":44.9999,"RA_OF_ASC_NODE":117.9871,"ARG_OF_PERICENTER":320.9462,"MEAN_ANOMALY":39.1392,"EPHEMERIS_TYPE":0,"CLASSIFICATION_TYPE":"U","NORAD_CAT_ID":62392,"ELEMENT_SET_NO":999,"REV_AT_EPOCH":6770,"BSTAR":0.00028857954,"MEAN_MOTION_DOT":7.664e-5,"MEAN_MOTION_DDOT":0}]
